NORAD_CAT_ID,OBJECT_NAME,OBJECT_TYPE,EPOCH,MEAN_MOTION,ECCENTRICITY,INCLINATION,RA_OF_ASC_NODE,ARG_OF_PERICENTER,MEAN_ANOMALY,BSTAR,MEAN_MOTION_DOT,MEAN_MOTION_DDOT,TLE_LINE0,TLE_LINE1,TLE_LINE2,SEMIMAJOR_AXIS,PERIOD,APOGEE,PERIGEE,DECAYED
53869.0,STARLINK-4810,PAYLOAD,2023-12-18 04:02:28,15.08851899,0.0001569,53.2188,321.3499,112.8989,247.2169,0.00030362,4.549e-05,0.0,0 STARLINK-4810,1 53869U 22114BD  23352.16838301  .00004549  00000-0  30362-3 0  9995,2 53869  53.2188 321.3499 0001569 112.8989 247.2169 15.08851899 70057,6917.844,95.437,540.794,538.624,0.0
53869.0,STARLINK-4810,PAYLOAD,2023-12-18 05:37:51,15.0885576,0.0001378,53.2176,321.0437,87.7216,272.3934,0.00035057,5.298e-05,0.0,0 STARLINK-4810,1 53869U 22114BD  23352.23462102  .00005298  00000-0  35057-3 0  9993,2 53869  53.2176 321.0437 0001378  87.7216 272.3934 15.08855760 70605,6917.832,95.437,540.65,538.744,0.0
53869.0,STARLINK-4810,PAYLOAD,2023-12-19 02:17:53,15.08835865,0.0001443,53.2181,317.1821,86.3657,273.75,-2.0764e-05,-6.18e-06,0.0,0 STARLINK-4810,1 53869U 22114BD  23353.09575481 -.00000618  00000-0 -20764-4 0  9996,2 53869  53.2181 317.1821 0001443  86.3657 273.7500 15.08835865 70193,6917.893,95.438,540.756,538.76,0.0
53869.0,STARLINK-4810,PAYLOAD,2023-12-19 05:28:39,15.08838173,0.0001544,53.2175,316.5857,86.7108,273.4061,4.1115e-05,3.66e-06,0.0,0 STARLINK-4810,1 53869U 22114BD  23353.22823320  .00000366  00000-0  41115-4 0  9990,2 53869  53.2175 316.5857 0001544  86.7108 273.4061 15.08838173 70751,6917.886,95.438,540.819,538.683,0.0
53869.0,STARLINK-4810,PAYLOAD,2023-12-20 03:44:03,15.08839728,0.0001775,53.216,312.4243,76.4571,283.6619,0.00013574,1.873e-05,0.0,0 STARLINK-4810,1 53869U 22114BD  23354.15559792  .00001873  00000-0  13574-3 0  9993,2 53869  53.2160 312.4243 0001775  76.4571 283.6619 15.08839728 70350,6917.881,95.438,540.974,538.518,0.0
53869.0,STARLINK-4810,PAYLOAD,2023-12-21 03:34:49,15.08862433,0.0002109,53.2176,307.96,122.3033,237.8164,0.00060009,9.281e-05,0.0,0 STARLINK-4810,1 53869U 22114BD  23355.14918741  .00009281  00000-0  60009-3 0  9992,2 53869  53.2176 307.9600 0002109 122.3033 237.8164 15.08862433 70501,6917.812,95.436,541.136,538.218,0.0
53869.0,STARLINK-4810,PAYLOAD,2023-12-22 03:25:37,15.08845365,0.0001394,53.2171,303.4962,105.323,254.7916,0.00014603,2.037e-05,0.0,0 STARLINK-4810,1 53869U 22114BD  23356.14279240  .00002037  00000-0  14603-3 0  9998,2 53869  53.2171 303.4962 0001394 105.3230 254.7916 15.08845365 70657,6917.864,95.437,540.693,538.765,0.0
53869.0,STARLINK-4810,PAYLOAD,2023-12-23 03:16:24,15.08841198,0.0001417,53.2165,299.0359,109.0267,251.0879,0.00060465,9.348e-05,0.0,0 STARLINK-4810,1 53869U 22114BD  23357.13639678  .00009348  00000-0  60465-3 0  9992,2 53869  53.2165 299.0359 0001417 109.0267 251.0879 15.08841198 70802,6917.877,95.437,540.722,538.761,0.0
53869.0,STARLINK-4810,PAYLOAD,2023-12-23 06:27:10,15.08846664,0.0001225,53.2166,298.4416,99.5917,260.5214,0.00046278,7.086e-05,0.0,0 STARLINK-4810,1 53869U 22114BD  23357.26887549  .00007086  00000-0  46278-3 0  9991,2 53869  53.2166 298.4416 0001225  99.5917 260.5214 15.08846664 71365,6917.86,95.437,540.572,538.878,0.0
53869.0,STARLINK-4810,PAYLOAD,2023-12-23 20:45:39,15.0882752,0.0001353,53.2184,295.7584,115.701,244.4122,-9.6715e-06,-4.42e-06,0.0,0 STARLINK-4810,1 53869U 22114BD  23357.86504354 -.00000442  00000-0 -96715-5 0  9991,2 53869  53.2184 295.7584 0001353 115.7010 244.4122 15.08827520 71457,6917.919,95.438,540.72,538.848,0.0
53869.0,STARLINK-4810,PAYLOAD,2023-12-24 01:31:49,15.08831034,0.0001824,53.2165,294.8684,132.6617,227.4529,2.0283e-05,3.5e-07,0.0,0 STARLINK-4810,1 53869U 22114BD  23358.06376359  .00000035  00000-0  20283-4 0  9998,2 53869  53.2165 294.8684 0001824 132.6617 227.4529 15.08831034 70941,6917.908,95.438,541.035,538.511,0.0
53869.0,STARLINK-4810,PAYLOAD,2023-12-25 02:57:58,15.08860875,0.0001301,53.2166,290.1152,105.8051,254.3085,0.00055033,8.486e-05,0.0,0 STARLINK-4810,1 53869U 22114BD  23359.12359707  .00008486  00000-0  55033-3 0  9992,2 53869  53.2166 290.1152 0001301 105.8051 254.3085 15.08860875 71105,6917.817,95.436,540.582,538.782,0.0
53869.0,STARLINK-4810,PAYLOAD,2023-12-25 04:33:21,15.08860453,0.0001346,53.2168,289.818,90.8936,269.2211,0.00053289,8.208e-05,0.0,0 STARLINK-4810,1 53869U 22114BD  23359.18983706  .00008208  00000-0  53289-3 0  9993,2 53869  53.2168 289.8180 0001346  90.8936 269.2211 15.08860453 71655,6917.818,95.436,540.614,538.752,0.0
53869.0,STARLINK-4810,PAYLOAD,2023-12-26 02:48:46,15.08845045,0.000126,53.2159,285.6558,103.706,256.4073,0.00016184,2.289e-05,0.0,0 STARLINK-4810,1 53869U 22114BD  23360.11720149  .00002289  00000-0  16184-3 0  9994,2 53869  53.2159 285.6558 0001260 103.7060 256.4073 15.08845045 71255,6917.865,95.437,540.602,538.858,0.0
53869.0,STARLINK-4810,PAYLOAD,2023-12-26 04:24:09,15.08847902,0.0001289,53.216,285.3577,112.6212,247.4917,0.00021476,3.132e-05,0.0,0 STARLINK-4810,1 53869U 22114BD  23360.18343975  .00003132  00000-0  21476-3 0  9997,2 53869  53.2160 285.3577 0001289 112.6212 247.4917 15.08847902 71806,6917.856,95.437,540.613,538.83,0.0
53869.0,STARLINK-4810,PAYLOAD,2023-12-27 04:14:56,15.08848129,0.0001453,53.2169,280.8963,94.0456,266.0702,0.00033409,5.034e-05,0.0,0 STARLINK-4810,1 53869U 22114BD  23361.17703931  .00005034  00000-0  33409-3 0  9991,2 53869  53.2169 280.8963 0001453  94.0456 266.0702 15.08848129 71418,6917.856,95.437,540.726,538.715,0.0
53869.0,STARLINK-4810,PAYLOAD,2023-12-27 18:33:24,15.08838671,0.0001243,53.2156,278.2198,112.4989,247.6135,0.00012651,1.726e-05,0.0,0 STARLINK-4810,1 53869U 22114BD  23361.77320358  .00001726  00000-0  12651-3 0  9995,2 53869  53.2156 278.2198 0001243 112.4989 247.6135 15.08838671 71504,6917.884,95.438,540.609,538.89,0.0
53869.0,STARLINK-4810,PAYLOAD,2023-12-28 04:05:43,15.0885033,0.0001621,53.2169,276.439,96.3991,263.7185,0.00030823,4.622e-05,0.0,0 STARLINK-4810,1 53869U 22114BD  23362.17064149  .00004622  00000-0  30823-3 0  9992,2 53869  53.2169 276.4390 0001621  96.3991 263.7185 15.08850330 71561,6917.849,95.437,540.835,538.592,0.0
53869.0,STARLINK-4810,PAYLOAD,2023-12-28 21:34:58,15.08843015,0.0001868,53.2174,273.1632,109.5442,250.5752,3.7727e-05,3.12e-06,0.0,0 STARLINK-4810,1 53869U 22114BD  23362.89928308  .00000312  00000-0  37727-4 0  9990,2 53869  53.2174 273.1632 0001868 109.5442 250.5752 15.08843015 72210,6917.871,95.437,541.028,538.444,0.0
53869.0,STARLINK-4810,PAYLOAD,2023-12-29 00:45:44,15.08842854,0.000163,53.2177,272.5666,96.1161,264.0017,6.4045e-05,7.31e-06,0.0,0 STARLINK-4810,1 53869U 22114BD  23363.03176386  .00000731  00000-0  64045-4 0  9996,2 53869  53.2177 272.5666 0001630  96.1161 264.0017 15.08842854 71694,6917.872,95.437,540.864,538.609,0.0
53869.0,STARLINK-4810,PAYLOAD,2023-12-29 03:56:30,15.08842249,0.0001674,53.2176,271.9731,96.7567,263.3616,1.3804e-05,-6.8e-07,0.0,0 STARLINK-4810,1 53869U 22114BD  23363.16424420 -.00000068  00000-0  13804-4 0  9996,2 53869  53.2176 271.9731 0001674  96.7567 263.3616 15.08842249 72251,6917.874,95.437,540.897,538.58,0.0
53869.0,STARLINK-4810,PAYLOAD,2023-12-29 21:25:44,15.08846103,0.0001808,53.2173,268.7031,116.7348,243.383,6.0476e-05,6.75e-06,0.0,0 STARLINK-4810,1 53869U 22114BD  23363.89288190  .00000675  00000-0  60476-4 0  9998,2 53869  53.2173 268.7031 0001808 116.7348 243.3830 15.08846103 72365,6917.862,95.437,540.977,538.476,0.0
53869.0,STARLINK-4810,PAYLOAD,2023-12-29 23:01:08,15.08846947,0.0001803,53.2176,268.4053,115.1945,244.9234,7.1189e-05,8.45e-06,0.0,0 STARLINK-4810,1 53869U 22114BD  23363.95912141  .00000845  00000-0  71189-4 0  9997,2 53869  53.2176 268.4053 0001803 115.1945 244.9234 15.08846947 72372,6917.859,95.437,540.971,538.477,0.0
53869.0,STARLINK-4810,PAYLOAD,2023-12-30 18:05:46,15.08839663,0.0001589,53.2161,264.8398,86.412,273.7053,6.5923e-05,7.61e-06,0.0,0 STARLINK-4810,1 53869U 22114BD  23364.75400653  .00000761  00000-0  65923-4 0  9992,2 53869  53.2161 264.8398 0001589  86.4120 273.7053 15.08839663 71953,6917.881,95.438,540.846,538.647,0.0
53869.0,STARLINK-4810,PAYLOAD,2023-12-30 22:51:55,15.08837294,0.0001548,53.2173,263.947,98.2542,261.8626,5.6604e-05,6.13e-06,0.0,0 STARLINK-4810,1 53869U 22114BD  23364.95272820  .00000613  00000-0  56604-4 0  9999,2 53869  53.2173 263.9470 0001548  98.2542 261.8626 15.08837294 72527,6917.889,95.438,540.825,538.683,0.0
53869.0,STARLINK-4810,PAYLOAD,2023-12-31 21:07:19,15.08841802,0.0001342,53.2157,259.782,92.2252,267.8894,2.7893e-08,-2.87e-06,0.0,0 STARLINK-4810,1 53869U 22114BD  23365.88008830 -.00000287  00000-0  27893-7 0  9999,2 53869  53.2157 259.7820 0001342  92.2252 267.8894 15.08841802 72124,6917.875,95.437,540.668,538.812,0.0
53869.0,STARLINK-4810,PAYLOAD,2024-01-01 16:11:56,15.08850677,0.0001186,53.2159,256.2151,79.6341,280.4785,0.00021125,3.077e-05,0.0,0 STARLINK-4810,1 53869U 22114BD  24001.67495385  .00003077  00000-0  21125-3 0  9996,2 53869  53.2159 256.2151 0001186  79.6341 280.4785 15.08850677 72242,6917.848,95.437,540.533,538.892,0.0
53869.0,STARLINK-4810,PAYLOAD,2024-01-01 22:33:27,15.08858316,0.000144,53.2166,255.0322,86.9626,273.153,0.0002587,3.834e-05,0.0,0 STARLINK-4810,1 53869U 22114BD  24001.93990578  .00003834  00000-0  25870-3 0  9991,2 53869  53.2166 255.0322 0001440  86.9626 273.1530 15.08858316 72826,6917.824,95.436,540.686,538.693,0.0
53869.0,STARLINK-4810,PAYLOAD,2024-01-02 01:44:13,15.08869575,0.0001288,53.2161,254.4345,90.4975,269.6165,0.00036815,5.581e-05,0.0,0 STARLINK-4810,1 53869U 22114BD  24002.07237681  .00005581  00000-0  36815-3 0  9998,2 53869  53.2161 254.4345 0001288  90.4975 269.6165 15.08869575 72302,6917.79,95.436,540.546,538.764,0.0
53869.0,STARLINK-4810,PAYLOAD,2024-01-02 22:24:15,15.088341,0.0002527,53.2151,250.5612,142.6271,217.4898,-0.00016077,-2.846e-05,0.0,0 STARLINK-4810,1 53869U 22114BD  24002.93351756 -.00002846  00000-0 -16077-3 0  9994,2 53869  53.2151 250.5612 0002527 142.6271 217.4898 15.08834100 72974,6917.898,95.438,541.512,538.015,0.0
